CUTE-1 (CO-55)          
1 27844U 03031E   20312.73668747  .00000070  00000-0  51300-4 0  9998
2 27844  98.6829 318.3149 0009941   7.1683 352.9635 14.22266079900502
CUBESAT XI-IV (CO-57)   
1 27848U 03031J   20312.45326605  .00000048  00000-0  41700-4 0  9993
2 27848  98.6893 318.6024 0010078  20.4327 339.7252 14.21849267900297
CUBESAT XI-V            
1 28895U 05043F   20312.34744153  .00000192  00000-0  45727-4 0  9994
2 28895  98.0303  84.8752 0016711 186.0634 174.0369 14.63819343801747
CUTE-1.7+APD II (CO-65) 
1 32785U 08021C   20312.44953033  .00000354  00000-0  43688-4 0  9990
2 32785  97.5876 294.2842 0013629  25.3145 334.8737 14.88546879679211
AAUSAT-II               
1 32788U 08021F   20312.27152093  .00000945  00000-0  90915-4 0  9992
2 32788  97.4960 310.4648 0010307 299.9661  60.0537 14.95212509680658
DELFI-C3 (DO-64)        
1 32789U 08021G   20312.67177971  .00001774  00000-0  11885-3 0  9998
2 32789  97.4035 350.3779 0012064 177.3248 182.8047 15.08081621683490
SEEDS II (CO-66)        
1 32791U 08021J   20312.40345000  .00000510  00000-0  56713-4 0  9999
2 32791  97.5521 300.3278 0013039 352.9957   7.1078 14.91156235679688
SWISSCUBE               
1 35932U 09051B   20312.45991715  .00000174  00000-0  50224-4 0  9995
2 35932  98.6096 139.3697 0008452  53.3933 306.8041 14.56443334590682
BEESAT-1                
1 35933U 09051C   20312.43515098  .00000140  00000-0  42478-4 0  9995
2 35933  98.6079 141.2091 0006770  66.1702 294.0204 14.56512763590717
ITUPSAT1                
1 35935U 09051E   20312.44522820  .00000110  00000-0  36334-4 0  9990
2 35935  98.6184 141.3982 0009078  64.9360 295.2778 14.55653445590470
TISAT 1                 
1 36799U 10035E   20312.40892302  .00000373  00000-0  43406-4 0  9993
2 36799  98.2024 128.2856 0011416 217.0284 143.0146 14.91472372560235
M-CUBED & EXP-1 PRIME   
1 37855U 11061F   20312.43753930  .00001094  00000-0  61100-4 0  9995
2 37855 101.7277 114.6927 0169748  10.4694 349.9982 15.06707692492736
AEROCUBE 4.5A           
1 38767U 12048K   20312.28261477  .00000501  00000-0  56477-4 0  9990
2 38767  64.6650 149.6937 0134218  84.3987 277.2414 14.92433363 63113
AEROCUBE 4.5B           
1 38768U 12048L   20312.47384572  .00000783  00000-0  73941-4 0  9991
2 38768  64.6659 115.0901 0124448  79.0670 282.4416 14.96162851 63277
STRAND-1                
1 39090U 13009E   20312.49273556  .00000028  00000-0  24876-4 0  9994
2 39090  98.4423 153.7090 0008428 213.7363 146.3287 14.35151562403220
SOMP                    
1 39134U 13015E   20312.82296118  .00001704  00000-0  84249-4 0  9998
2 39134  64.8618 172.6209 0020442 222.5228 137.4317 15.21459568417865
BEESAT-3                
1 39135U 13015F   20312.17335554  .00001377  00000-0  75703-4 0  9996
2 39135  64.8659 200.3923 0024641 219.1050 140.8297 15.18495923416880
BEESAT-2                
1 39136U 13015G   20312.14624417  .00001618  00000-0  88167-4 0  9999
2 39136  64.8762 205.9794 0034628 265.3942  94.3228 15.17907137416771
NEE-01 PEGASO           
1 39151U 13018B   20312.23948820  .00000217  00000-0  35432-4 0  9997
2 39151  97.9771  50.1039 0016927   2.6609 357.4689 14.80224998406804
ESTCUBE 1               
1 39161U 13021C   20312.81179815  .00000224  00000-0  43077-4 0  9998
2 39161  97.9578  32.9131 0010307 134.9547 225.2497 14.72371668403137
POPACS 1                
1 39268U 13055D   20311.96656067  .00008156  00000-0  22068-3 0  9995
2 39268  80.9990 145.3940 0612354 158.5282 204.2842 14.40486469369975
POPACS 2                
1 39269U 13055E   20312.10588933  .00002785  00000-0  80453-4 0  9994
2 39269  81.0158 186.6312 0673601 265.4098  86.9898 14.26231431367537
POPACS 3                
1 39270U 13055F   20312.45714054  .00003688  00000-0  11498-3 0  9994
2 39270  81.0183 209.9246 0707708 332.1732  24.3191 14.17359543345381
ZACUBE-1 (TSHEPISOSAT)  
1 39417U 13066B   20312.43457122  .00000275  00000-0  40577-4 0  9997
2 39417  97.5745 302.5733 0059025 167.6224 192.6456 14.81347615376206
WNISAT-1                
1 39423U 13066H   20312.74879978  .00000063  00000-0  22090-4 0  9990
2 39423  97.7982 224.4251 0175065 168.3386 192.1954 14.53149587369235
TRITON-1                
1 39427U 13066M   20312.81733814  .00000388  00000-0  69704-4 0  9993
2 39427  97.7454 265.9186 0113221 340.2804  19.4041 14.68081807372881
GOMX-1                  
1 39430U 13066Q   20312.82393084  .00000308  00000-0  63958-4 0  9996
2 39430  97.7999 242.7497 0152169  92.8239 269.0410 14.59460742370715
CUBEBUG-2 (LO-74)       
1 39440U 13066AA  20312.66196885  .00000255  00000-0  42430-4 0  9992
2 39440  97.6481 287.3738 0078757 234.7584 124.6238 14.76085779374905
NEE-02 KRYSAOR          
1 39441U 13066AB  20312.43185204  .00000178  00000-0  32520-4 0  9994
2 39441  97.6563 284.5959 0080209 245.4202 113.8634 14.75069426373484
FUNCUBE-1 (AO-73)       
1 39444U 13066AE  20312.55196179  .00000345  00000-0  48377-4 0  9996
2 39444  97.5675 304.9854 0058365 158.7860 201.5794 14.82216216375152
UWE-3                   
1 39446U 13066AG  20312.54087189  .00000253  00000-0  40097-4 0  9996
2 39446  97.6128 294.3849 0069204 201.9308 157.8939 14.78617343374307
AEROCUBE 5A             
1 39465U 13072D   20312.27908537  .00010461  00000-0  81147-3 0  9995
2 39465 120.4979 320.7844 0266860  33.5044 328.2588 14.78056457 62467
AEROCUBE 5B             
1 39466U 13072E   20312.41580408  .00010544  00000-0  68989-3 0  9996
2 39466 120.4828   5.9405 0237806  44.5177 317.4729 14.88179895 62834
BRITE-CA1 (TORONTO)     
1 40020U 14033L   20312.47698407  .00000132  00000-0  30891-4 0  9991
2 40020  97.7311 132.5199 0086809 337.1440  22.5910 14.66671606341728
DUCHIFAT-1              
1 40021U 14033M   20312.36233724  .00000731  00000-0  79660-4 0  9999
2 40021  97.9509 244.5255 0012814 170.2466 189.9003 14.91031247347182
NANOSATC-BR1            
1 40024U 14033Q   20312.39849912  .00000438  00000-0  51145-4 0  9999
2 40024  97.9333 240.4606 0012069 174.4906 185.6446 14.90181463347046
QB50P1                  
1 40025U 14033R   20312.37296704  .00000346  00000-0  42555-4 0  9996
2 40025  97.9186 236.6759 0012151 182.6560 177.4595 14.89227989346874
QB50P2                  
1 40032U 14033Y   20312.80410137  .00000405  00000-0  49312-4 0  9994
2 40032  97.9053 234.2515 0011660 178.0544 182.0721 14.88748854346831
PERSEUS-M2              
1 40037U 14033AD  20312.43171816  .00000151  00000-0  23218-4 0  9991
2 40037  97.8860 227.6675 0013809 198.1946 161.8778 14.86582265346400
PERSEUS-M1              
1 40039U 14033AF  20312.81440328  .00000157  00000-0  24081-4 0  9997
2 40039  97.8815 226.6655 0013735 195.0334 165.0475 14.86202501346372
POLYITAN-1              
1 40042U 14033AJ  20312.79617190  .00000494  00000-0  58497-4 0  9993
2 40042  97.9274 237.7280 0014489 173.1110 187.0308 14.88984819346830
TIGRISAT                
1 40043U 14033AK  20312.34536468  .00000180  00000-0  33838-4 0  9997
2 40043  97.6910 161.5725 0058492 256.5424 102.9263 14.74427756343109
AEROCUBE 6A             
1 40045U 14033AM  20312.35798286  .00000333  00000-0  54934-4 0  9998
2 40045  97.7160 167.7709 0056460 247.1676 112.3565 14.75648226343183
AEROCUBE 6B             
1 40046U 14033AN  20312.36813857  .00000363  00000-0  59184-4 0  9997
2 40046  97.7062 166.8859 0055588 246.1194 113.4186 14.75651950343184
UKUBE-1                 
1 40074U 14037F   20312.48215400  .00000423  00000-0  57528-4 0  9992
2 40074  98.4482 149.3255 0005169  28.6574 331.4921 14.84358438342970
BRITE-PL2 (HEWELIUSZ)   
1 40119U 14049B   20312.21357875  .00000158  00000-0  25199-4 0  9993
2 40119  97.8939  43.0198 0017453   7.3390 352.8077 14.84551117336875
FIREBIRD 4              
1 40378U 15003C   20312.78949642  .00004838  00000-0  18404-3 0  9991
2 40378  99.0851  42.3890 0122207 194.5892 165.1800 15.20691575319098
GRIFEX                  
1 40379U 15003D   20312.78285350  .00002960  00000-0  12530-3 0  9999
2 40379  99.0885  33.4268 0131031 222.5096 136.5929 15.16831864318577
EXOCUBE (CP10)          
1 40380U 15003E   20312.18971968  .00002145  00000-0  96752-4 0  9996
2 40380  99.0945  27.9558 0136069 240.9320 117.8223 15.14708766318151
AEROCUBE 8A             
1 40659U 15025J   20312.39497815  .00026703  00000-0  24414-3 0  9997
2 40659  55.0152 349.4130 0092203 186.3617 173.6259 15.62300467 65857
AEROCUBE 8B             
1 40660U 15025K   20312.40001025  .00026657  00000-0  24033-3 0  9990
2 40660  55.0125 346.8833 0090970 188.6684 171.2789 15.62767002 65874
TIANWANG 1C (TW-1C)     
1 40926U 15051B   20312.79737154  .00051729  00000-0  35877-3 0  9991
2 40926  97.0623   6.0376 0003295 238.6747 214.7644 15.74313498289505
TIANWANG 1A (TW-1A)     
1 40928U 15051D   20312.54154212  .00003985  00000-0  90705-4 0  9997
2 40928  97.0984 336.8723 0011133  34.9837 117.7720 15.43477719287434
EXACTVIEW 9             
1 40936U 15052G   20311.68590905  .00000839  00000-0  28202-4 0  9992
2 40936   6.0040  46.0551 0009951 118.1597 241.9537 14.76610876276261
AEROCUBE 5C             
1 40965U 15058B   20312.73658835  .00000081  00000-0  28871-4 0  9995
2 40965  64.7788  69.9481 0180197  22.1825 338.6949 14.74586852 62436
AEROCUBE 7              
1 40966U 15058C   20312.41587085  .00000128  00000-0  34174-4 0  9994
2 40966  64.7787  69.1947 0179095  21.9535 338.9117 14.74901041 62391
ATHENOXAT 1             
1 41168U 15077C   20312.48942248  .00002466  00000-0  92510-4 0  9998
2 41168  14.9936  91.7364 0012276 320.3353  89.9174 15.14727802271062
GALASSIA                
1 41170U 15077E   20311.05263621  .00002513  00000-0  94104-4 0  9998
2 41170  14.9883  93.6461 0012575 327.8871  32.0684 15.15006412270897
VELOX-II                
1 41171U 15077F   20312.68666412  .00001921  00000-0  70652-4 0  9998
2 41171  14.9902 131.0835 0008728 237.1271 122.8210 15.11930002270715
